NORAD_CAT_ID,OBJECT_NAME,OBJECT_TYPE,EPOCH,MEAN_MOTION,ECCENTRICITY,INCLINATION,RA_OF_ASC_NODE,ARG_OF_PERICENTER,MEAN_ANOMALY,BSTAR,MEAN_MOTION_DOT,MEAN_MOTION_DDOT,TLE_LINE0,TLE_LINE1,TLE_LINE2,SEMIMAJOR_AXIS,PERIOD,APOGEE,PERIGEE,DECAYED
51770.0,STARLINK-3612,PAYLOAD,2023-02-23 00:52:01,15.08835022,0.0001224,53.2147,285.0388,92.3532,267.76,0.00029127,4.35e-05,0.0,0 STARLINK-3612,1 51770U 22017C   23054.03612937  .00004350  00000-0  29127-3 0  9993,2 51770  53.2147 285.0388 0001224  92.3532 267.7600 15.08835022 54945,6917.896,95.438,540.607,538.914,0.0
51770.0,STARLINK-3612,PAYLOAD,2023-02-23 21:32:02,15.0885631,0.0001228,53.2152,281.1728,93.5241,266.5892,0.00099264,0.00015552,0.0,0 STARLINK-3612,1 51770U 22017C   23054.89724843  .00015552  00000-0  99264-3 0  9992,2 51770  53.2152 281.1728 0001228  93.5241 266.5892 15.08856310 55078,6917.831,95.437,540.545,538.846,0.0
51770.0,STARLINK-3612,PAYLOAD,2023-02-23 23:07:25,15.08860068,0.0001225,53.2151,280.8753,92.819,267.2942,0.001068,0.00016759,0.0,0 STARLINK-3612,1 51770U 22017C   23054.96348733  .00016759  00000-0  10680-2 0  9994,2 51770  53.2151 280.8753 0001225  92.8190 267.2942 15.08860068 56523,6917.819,95.436,540.531,538.837,0.0
51770.0,STARLINK-3612,PAYLOAD,2023-02-24 21:22:49,15.08849052,0.000118,53.2155,276.7115,105.6314,254.4808,0.00042229,6.441e-05,0.0,0 STARLINK-3612,1 51770U 22017C   23055.89084718  .00006441  00000-0  42229-3 0  9999,2 51770  53.2155 276.7115 0001180 105.6314 254.4808 15.08849052 55229,6917.853,95.437,540.534,538.901,0.0
51770.0,STARLINK-3612,PAYLOAD,2023-02-24 22:58:12,15.08842441,0.0001251,53.2155,276.4141,91.8895,268.224,0.00022603,3.311e-05,0.0,0 STARLINK-3612,1 51770U 22017C   23055.95708928  .00003311  00000-0  22603-3 0  9999,2 51770  53.2155 276.4141 0001251  91.8895 268.2240 15.08842441 56672,6917.873,95.437,540.603,538.873,0.0
51770.0,STARLINK-3612,PAYLOAD,2023-02-25 14:52:04,15.08838209,0.0001221,53.2155,273.4404,87.5143,272.5989,0.00020287,2.942e-05,0.0,0 STARLINK-3612,1 51770U 22017C   23056.61949154  .00002942  00000-0  20287-3 0  9996,2 51770  53.2155 273.4404 0001221  87.5143 272.5989 15.08838209 55333,6917.886,95.438,540.596,538.906,0.0
51770.0,STARLINK-3612,PAYLOAD,2023-02-25 18:02:50,15.08841814,0.0001099,53.2154,272.8457,88.9208,271.191,0.0001255,1.71e-05,0.0,0 STARLINK-3612,1 51770U 22017C   23056.75197035  .00001710  00000-0  12550-3 0  9990,2 51770  53.2154 272.8457 0001099  88.9208 271.1910 15.08841814 56799,6917.875,95.437,540.5,538.98,0.0
51770.0,STARLINK-3612,PAYLOAD,2023-02-25 19:38:13,15.0884408,0.0001206,53.2155,272.5486,85.421,274.692,0.00019035,2.743e-05,0.0,0 STARLINK-3612,1 51770U 22017C   23056.81821010  .00002743  00000-0  19035-3 0  9996,2 51770  53.2155 272.5486 0001206  85.4210 274.6920 15.08844080 55363,6917.868,95.437,540.567,538.899,0.0
51770.0,STARLINK-3612,PAYLOAD,2023-02-26 14:42:50,15.08847423,0.0001311,53.2145,268.9795,112.9779,247.1351,0.00023534,3.46e-05,0.0,0 STARLINK-3612,1 51770U 22017C   23057.61308684  .00003460  00000-0  23534-3 0  9998,2 51770  53.2145 268.9795 0001311 112.9779 247.1351 15.08847423 55487,6917.858,95.437,540.63,538.816,0.0
51770.0,STARLINK-3612,PAYLOAD,2023-02-26 21:04:23,15.08853096,0.0001277,53.2145,267.7907,98.4758,261.6379,0.0003215,4.834e-05,0.0,0 STARLINK-3612,1 51770U 22017C   23057.87804494  .00004834  00000-0  32150-3 0  9996,2 51770  53.2145 267.7907 0001277  98.4758 261.6379 15.08853096 56963,6917.84,95.437,540.589,538.822,0.0
51770.0,STARLINK-3612,PAYLOAD,2023-02-26 22:39:46,15.08853902,0.0001166,53.2147,267.4932,87.762,272.3506,0.00035909,5.434e-05,0.0,0 STARLINK-3612,1 51770U 22017C   23057.94428384  .00005434  00000-0  35909-3 0  9996,2 51770  53.2147 267.4932 0001166  87.7620 272.3506 15.08853902 55535,6917.838,95.437,540.51,538.896,0.0
51770.0,STARLINK-3612,PAYLOAD,2023-02-27 17:44:23,15.08857296,0.0001191,53.2145,263.9238,95.9012,264.2116,0.00040035,6.092e-05,0.0,0 STARLINK-3612,1 51770U 22017C   23058.73916114  .00006092  00000-0  40035-3 0  9994,2 51770  53.2145 263.9238 0001191  95.9012 264.2116 15.08857296 57097,6917.828,95.436,540.516,538.869,0.0
51770.0,STARLINK-3612,PAYLOAD,2023-02-27 20:55:09,15.08857863,0.0001066,53.2149,263.3328,94.6873,265.4241,0.00033724,5.086e-05,0.0,0 STARLINK-3612,1 51770U 22017C   23058.87164029  .00005086  00000-0  33724-3 0  9998,2 51770  53.2149 263.3328 0001066  94.6873 265.4241 15.08857863 55671,6917.826,95.436,540.428,538.953,0.0
51770.0,STARLINK-3612,PAYLOAD,2023-02-28 12:49:01,15.08834722,0.0001775,53.2143,260.3561,101.766,258.3531,-4.5297e-05,-1.009e-05,0.0,0 STARLINK-3612,1 51770U 22017C   23059.53404602 -.00001009  00000-0 -45297-4 0  9998,2 51770  53.2143 260.3561 0001775 101.7660 258.3531 15.08834722 55775,6917.897,95.438,540.989,538.534,0.0
51770.0,STARLINK-3612,PAYLOAD,2023-02-28 14:24:25,15.08825056,0.0001057,53.2154,260.06,56.569,303.5403,-0.00039737,-6.604e-05,0.0,0 STARLINK-3612,1 51770U 22017C   23059.60029289 -.00006604  00000-0 -39737-3 0  9997,2 51770  53.2154 260.0600 0001057  56.5690 303.5403 15.08825056 57224,6917.926,95.438,540.522,539.06,0.0
51770.0,STARLINK-3612,PAYLOAD,2023-02-28 20:45:58,15.08818653,0.0001157,53.2154,258.8693,79.6766,280.4356,-0.00031361,-5.272e-05,0.0,0 STARLINK-3612,1 51770U 22017C   23059.86526101 -.00005272  00000-0 -31361-3 0  9995,2 51770  53.2154 258.8693 0001157  79.6766 280.4356 15.08818653 55821,6917.946,95.439,540.611,539.01,0.0
51770.0,STARLINK-3612,PAYLOAD,2023-03-01 19:01:23,15.08832207,0.0001047,53.2159,254.7072,81.33,278.7811,-4.3724e-05,-9.83e-06,0.0,0 STARLINK-3612,1 51770U 22017C   23060.79262868 -.00000983  00000-0 -43724-4 0  9997,2 51770  53.2159 254.7072 0001047  81.3300 278.7811 15.08832207 57407,6917.904,95.438,540.494,539.045,0.0
51770.0,STARLINK-3612,PAYLOAD,2023-03-01 20:36:46,15.08830084,0.0001117,53.2152,254.4099,74.3736,285.7379,8.9596e-06,-1.45e-06,0.0,0 STARLINK-3612,1 51770U 22017C   23060.85886739 -.00000145  00000-0  89596-5 0  9990,2 51770  53.2152 254.4099 0001117  74.3736 285.7379 15.08830084 55977,6917.911,95.438,540.548,539.003,0.0
51770.0,STARLINK-3612,PAYLOAD,2023-03-02 18:52:09,15.08850428,0.0001182,53.2152,250.2459,71.7866,288.3255,0.00065961,0.00010228,0.0,0 STARLINK-3612,1 51770U 22017C   23061.78622513  .00010228  00000-0  65961-3 0  9991,2 51770  53.2152 250.2459 0001182  71.7866 288.3255 15.08850428 56111,6917.849,95.437,540.531,538.896,0.0
51770.0,STARLINK-3612,PAYLOAD,2023-03-03 05:59:51,15.08861215,0.0001181,53.2148,248.1645,69.0546,291.0573,0.00063349,9.814e-05,0.0,0 STARLINK-3612,1 51770U 22017C   23062.24990072  .00009814  00000-0  63349-3 0  9998,2 51770  53.2148 248.1645 0001181  69.0546 291.0573 15.08861215 57620,6917.816,95.436,540.498,538.864,0.0
51770.0,STARLINK-3612,PAYLOAD,2023-03-03 20:18:18,15.08864347,0.0001183,53.2161,245.4884,79.3297,280.7828,0.00033572,5.063e-05,0.0,0 STARLINK-3612,1 51770U 22017C   23062.84605215  .00005063  00000-0  33572-3 0  9993,2 51770  53.2161 245.4884 0001183  79.3297 280.7828 15.08864347 56276,6917.806,95.436,540.489,538.853,0.0
51770.0,STARLINK-3612,PAYLOAD,2023-03-04 12:12:10,15.08840678,0.0001005,53.2157,242.5152,67.5782,292.5317,-0.00019341,-3.365e-05,0.0,0 STARLINK-3612,1 51770U 22017C   23063.50845565 -.00003365  00000-0 -19341-3 0  9994,2 51770  53.2157 242.5152 0001005  67.5782 292.5317 15.08840678 56374,6917.878,95.438,540.439,539.048,0.0
51770.0,STARLINK-3612,PAYLOAD,2023-03-04 13:47:33,15.08840636,0.0001026,53.2155,242.2167,87.7239,272.3871,-0.00020935,-3.618e-05,0.0,0 STARLINK-3612,1 51770U 22017C   23063.57469470 -.00003618  00000-0 -20935-3 0  9990,2 51770  53.2155 242.2167 0001026  87.7239 272.3871 15.08840636 57825,6917.878,95.438,540.453,539.034,0.0
51770.0,STARLINK-3612,PAYLOAD,2023-03-04 20:09:06,15.08847057,0.0001231,53.2158,241.028,85.6467,274.4666,-2.2846e-05,-6.52e-06,0.0,0 STARLINK-3612,1 51770U 22017C   23063.83965293 -.00000652  00000-0 -22846-4 0  9992,2 51770  53.2158 241.0280 0001231  85.6467 274.4666 15.08847057 56423,6917.859,95.437,540.575,538.872,0.0
51770.0,STARLINK-3612,PAYLOAD,2023-03-04 21:44:29,15.08849049,0.0001241,53.2158,240.7305,86.2659,273.8475,2.7295e-05,1.47e-06,0.0,0 STARLINK-3612,1 51770U 22017C   23063.90589199  .00000147  00000-0  27295-4 0  9997,2 51770  53.2158 240.7305 0001241  86.2659 273.8475 15.08849049 57872,6917.853,95.437,540.576,538.859,0.0
51770.0,STARLINK-3612,PAYLOAD,2023-03-05 12:02:57,15.08837646,0.000114,53.2168,238.0552,93.431,266.6812,-1.7439e-05,-5.65e-06,0.0,0 STARLINK-3612,1 51770U 22017C   23064.50205718 -.00000565  00000-0 -17439-4 0  9991,2 51770  53.2168 238.0552 0001140  93.4310 266.6812 15.08837646 57964,6917.888,95.438,540.541,538.964,0.0
51770.0,STARLINK-3612,PAYLOAD,2023-03-05 18:24:29,15.08851036,0.0001306,53.2162,236.8657,90.7681,269.346,0.00025666,3.8e-05,0.0,0 STARLINK-3612,1 51770U 22017C   23064.76701330  .00003800  00000-0  25666-3 0  9993,2 51770  53.2162 236.8657 0001306  90.7681 269.3460 15.08851036 58009,6917.847,95.437,540.615,538.808,0.0
51770.0,STARLINK-3612,PAYLOAD,2023-03-06 11:53:44,15.08837231,0.0001081,53.2158,233.5933,78.5036,281.6078,0.00011026,1.467e-05,0.0,0 STARLINK-3612,1 51770U 22017C   23065.49565720  .00001467  00000-0  11026-3 0  9997,2 51770  53.2158 233.5933 0001081  78.5036 281.6078 15.08837231 58118,6917.889,95.438,540.502,539.006,0.0
51770.0,STARLINK-3612,PAYLOAD,2023-03-06 19:50:40,15.08851422,0.0001365,53.2166,232.1086,90.1638,269.9511,0.0005385,8.295e-05,0.0,0 STARLINK-3612,1 51770U 22017C   23065.82685466  .00008295  00000-0  53850-3 0  9991,2 51770  53.2166 232.1086 0001365  90.1638 269.9511 15.08851422 56728,6917.845,95.437,540.655,538.766,0.0
51770.0,STARLINK-3612,PAYLOAD,2023-03-07 16:30:41,15.08873127,0.0001393,53.2155,228.2402,81.6691,278.4459,0.0027537,0.0004385,0.0,0 STARLINK-3612,1 51770U 22017C   23066.68797535  .00043850  00000-0  27537-2 0  9995,2 51770  53.2155 228.2402 0001393  81.6691 278.4459 15.08873127 58295,6917.779,95.435,540.608,538.68,0.0
